OBJECT_NAME,OBJECT_ID,EPOCH,MEAN_MOTION,ECCENTRICITY,INCLINATION,RA_OF_ASC_NODE,ARG_OF_PERICENTER,MEAN_ANOMALY,EPHEMERIS_TYPE,CLASSIFICATION_TYPE,NORAD_CAT_ID,ELEMENT_SET_NO,REV_AT_EPOCH,BSTAR,MEAN_MOTION_DOT,MEAN_MOTION_DDOT
STARLINK-35172,2025-200P,2026-06-15T03:46:49.858464,15.05656690,.00017532,97.3569,234.9036,88.2857,271.8571,0,U,65533,999,4379,.14598197E-3,.205E-4,0
STARLINK-35125,2025-200Q,2026-06-15T03:58:46.051392,15.05650128,.00013412,97.3560,234.8944,100.5668,259.5710,0,U,65534,999,4379,-.28402284E-3,-.4153E-4,0
STARLINK-35133,2025-200R,2026-06-15T04:26:42.805824,15.05649838,.00008085,97.3605,235.0234,153.1633,206.9636,0,U,65535,999,4380,-.17069138E-3,-.2519E-4,0
STARLINK-35044,2025-200S,2026-06-15T03:18:55.346976,15.05660037,.00018356,97.3554,234.9310,119.7073,240.4338,0,U,65536,999,4379,.35585132E-3,.5082E-4,0
STARLINK-35136,2025-200T,2026-06-15T03:38:51.139392,15.05659703,.00013754,97.3568,234.9124,153.3941,206.7358,0,U,65537,999,4370,.2639225E-3,.3754E-4,0
STARLINK-35144,2025-200U,2026-06-15T03:30:53.009568,15.05658401,.00012552,97.3569,234.9211,69.6666,290.4696,0,U,65538,999,4379,.33148279E-3,.473E-4,0
STARLINK-35110,2025-200V,2026-06-15T04:14:45.221856,15.05658006,.00019511,97.3557,235.0337,138.0069,222.1308,0,U,65539,999,4380,.20451604E-3,.2895E-4,0
STARLINK-35052,2025-200W,2026-06-15T04:38:40.645536,15.05657394,.0002047,97.3550,235.0099,99.8273,260.3185,0,U,65540,999,4372,.19145773E-3,.2707E-4,0
STARLINK-35087,2025-200X,2026-06-15T04:46:38.981856,15.05658374,.00013342,97.3560,235.0031,91.9853,268.1527,0,U,65541,999,4380,.27938189E-3,.3977E-4,0
STARLINK-35100,2025-200Y,2026-06-15T03:54:49.142592,15.05676267,.00013225,97.3564,234.8988,110.5567,249.5803,0,U,65542,999,4379,.37283644E-3,.533E-4,0
STARLINK-35105,2025-200Z,2026-06-15T04:30:41.915232,15.05652541,.00019338,97.3553,235.0188,97.0461,263.0986,0,U,65543,999,4380,.34866801E-3,.4977E-4,0
STARLINK-35267,2025-207A,2026-06-15T03:48:51.895008,15.05658545,.00018011,97.3568,233.7581,117.3057,242.8354,0,U,65592,999,4291,.22692988E-3,.3219E-4,0
STARLINK-35269,2025-207B,2026-06-15T04:36:43.557120,15.05651568,.00011417,97.3586,233.8700,113.6365,246.4983,0,U,65593,999,4292,.75965593E-4,.1039E-4,0
STARLINK-35191,2025-207C,2026-06-15T03:24:57.020832,15.05629721,.00008161,97.3634,233.7825,204.2195,155.8995,0,U,65594,999,4275,-.51718528E-3,-.7507E-4,0
STARLINK-35261,2025-207D,2026-06-15T04:12:49.700736,15.05665221,.00016366,97.3562,233.8925,123.1594,236.9791,0,U,65595,999,4293,.3573273E-3,.5104E-4,0
STARLINK-35253,2025-207E,2026-06-15T03:36:54.444096,15.05662331,.00006761,97.3577,233.7725,89.7403,270.3902,0,U,65596,999,4271,.35887223E-3,.5126E-4,0
STARLINK-35263,2025-207F,2026-06-15T03:12:58.978944,15.05661822,.00020476,97.3571,233.7932,133.9551,226.1846,0,U,65597,999,4292,.38254314E-3,.5468E-4,0
STARLINK-35248,2025-207G,2026-06-15T04:24:45.755424,15.05661087,.00019942,97.3570,233.8780,108.9361,251.2083,0,U,65598,999,4293,.23894825E-3,.3393E-4,0
STARLINK-35245,2025-207H,2026-06-15T04:00:50.558112,15.05659417,.00019774,97.3555,233.9037,115.6736,244.4696,0,U,65599,999,4293,.25518389E-3,.3627E-4,0
STARLINK-35229,2025-207J,2026-06-15T03:44:52.700064,15.05656099,.00016024,97.3564,233.7621,125.5097,234.6281,0,U,65600,999,4292,.13218279E-3,.1851E-4,0
STARLINK-35234,2025-207K,2026-06-15T03:32:54.851712,15.05660818,.00008809,97.3601,233.7755,77.2100,282.9226,0,U,65601,999,4292,.19899329E-3,.2816E-4,0
STARLINK-35255,2025-207L,2026-06-15T06:20:25.659168,15.05631697,.00014338,97.3565,233.9228,114.5846,245.5531,0,U,65602,999,4294,.77373796E-4,.1059E-4,0
STARLINK-35250,2025-207M,2026-06-15T04:20:46.743648,15.05650111,.00021552,97.3596,233.8841,134.1462,225.9943,0,U,65603,999,4293,-.2732707E-5,-.97E-6,0
STARLINK-35251,2025-207N,2026-06-15T03:16:58.058976,15.05662145,.00007477,97.3566,233.7895,90.5606,269.5707,0,U,65604,999,4292,.28895159E-3,.4116E-4,0
STARLINK-35171,2025-207P,2026-06-15T04:32:44.706048,15.05618335,.00012275,97.3613,233.8705,118.8664,241.2686,0,U,65605,999,4277,-.10346355E-2,-.14941E-3,0
STARLINK-35195,2025-207Q,2026-06-15T03:56:51.385632,15.05658373,.00017422,97.3561,233.9075,94.9917,265.1510,0,U,65606,999,4293,.2316619E-3,.3288E-4,0
STARLINK-35156,2025-207R,2026-06-15T04:04:49.950048,15.05659463,.00028052,97.3564,233.8995,104.3307,255.8233,0,U,65607,999,4293,.26283883E-3,.3738E-4,0
STARLINK-35185,2025-207S,2026-06-15T04:40:42.709728,15.05658497,.00016805,97.3544,233.8645,107.1080,253.0332,0,U,65608,999,4293,.32978545E-3,.4705E-4,0
STARLINK-35053,2025-207T,2026-06-15T04:16:47.410464,15.05657595,.0001872,97.3562,233.8880,122.9639,237.1769,0,U,65609,999,4277,.12907942E-3,.1806E-4,0
STARLINK-35178,2025-207U,2026-06-15T03:20:57.996096,15.05594175,.00012156,97.3638,233.7879,164.2814,195.8451,0,U,65610,999,4292,-.18229519E-2,-.26223E-3,0
