STARLINK-35172          
1 65533U 25200P   26166.15752151  .00002050  00000+0  14598-3 0  9995
2 65533  97.3569 234.9036 0001753  88.2857 271.8571 15.05656690 43791
STARLINK-35125          
1 65534U 25200Q   26166.16581078 -.00004153  00000+0 -28402-3 0  9992
2 65534  97.3560 234.8944 0001341 100.5668 259.5710 15.05650128 43799
STARLINK-35133          
1 65535U 25200R   26166.18521766 -.00002519  00000+0 -17069-3 0  9994
2 65535  97.3605 235.0234 0000808 153.1633 206.9636 15.05649838 43809
STARLINK-35044          
1 65536U 25200S   26166.13814059  .00005082  00000+0  35585-3 0  9999
2 65536  97.3554 234.9310 0001835 119.7073 240.4338 15.05660037 43797
STARLINK-35136          
1 65537U 25200T   26166.15198078  .00003754  00000+0  26392-3 0  9998
2 65537  97.3568 234.9124 0001375 153.3941 206.7358 15.05659703 43709
STARLINK-35144          
1 65538U 25200U   26166.14644687  .00004730  00000+0  33148-3 0  9992
2 65538  97.3569 234.9211 0001255  69.6666 290.4696 15.05658401 43796
STARLINK-35110          
1 65539U 25200V   26166.17691229  .00002895  00000+0  20452-3 0  9994
2 65539  97.3557 235.0337 0001951 138.0069 222.1308 15.05658006 43801
STARLINK-35052          
1 65540U 25200W   26166.19352599  .00002707  00000+0  19146-3 0  9992
2 65540  97.3550 235.0099 0002047  99.8273 260.3185 15.05657394 43726
STARLINK-35087          
1 65541U 25200X   26166.19906229  .00003977  00000+0  27938-3 0  9996
2 65541  97.3560 235.0031 0001334  91.9853 268.1527 15.05658374 43803
STARLINK-35100          
1 65542U 25200Y   26166.16306878  .00005330  00000+0  37284-3 0  9998
2 65542  97.3564 234.8988 0001322 110.5567 249.5803 15.05676267 43792
STARLINK-35105          
1 65543U 25200Z   26166.18798513  .00004977  00000+0  34867-3 0  9992
2 65543  97.3553 235.0188 0001933  97.0461 263.0986 15.05652541 43800
STARLINK-35267          
1 65592U 25207A   26166.15893397  .00003219  00000+0  22693-3 0  9998
2 65592  97.3568 233.7581 0001801 117.3057 242.8354 15.05658545 42918
STARLINK-35269          
1 65593U 25207B   26166.19217080  .00001039  00000+0  75966-4 0  9992
2 65593  97.3586 233.8700 0001141 113.6365 246.4983 15.05651568 42928
STARLINK-35191          
1 65594U 25207C   26166.14232663 -.00007507  00000+0 -51719-3 0  9999
2 65594  97.3634 233.7825 0000816 204.2195 155.8995 15.05629721 42759
STARLINK-35261          
1 65595U 25207D   26166.17557524  .00005104  00000+0  35733-3 0  9996
2 65595  97.3562 233.8925 0001636 123.1594 236.9791 15.05665221 42935
STARLINK-35253          
1 65596U 25207E   26166.15063014  .00005126  00000+0  35887-3 0  9995
2 65596  97.3577 233.7725 0000676  89.7403 270.3902 15.05662331 42719
STARLINK-35263          
1 65597U 25207F   26166.13401596  .00005468  00000+0  38254-3 0  9995
2 65597  97.3571 233.7932 0002047 133.9551 226.1846 15.05661822 42927
STARLINK-35248          
1 65598U 25207G   26166.18386291  .00003393  00000+0  23895-3 0  9995
2 65598  97.3570 233.8780 0001994 108.9361 251.2083 15.05661087 42936
STARLINK-35245          
1 65599U 25207H   26166.16725183  .00003627  00000+0  25518-3 0  9995
2 65599  97.3555 233.9037 0001977 115.6736 244.4696 15.05659417 42936
STARLINK-35229          
1 65600U 25207J   26166.15616551  .00001851  00000+0  13218-3 0  9996
2 65600  97.3564 233.7621 0001602 125.5097 234.6281 15.05656099 42924
STARLINK-35234          
1 65601U 25207K   26166.14785708  .00002816  00000+0  19899-3 0  9990
2 65601  97.3601 233.7755 0000880  77.2100 282.9226 15.05660818 42929
STARLINK-35255          
1 65602U 25207L   26166.26418587  .00001059  00000+0  77374-4 0  9993
2 65602  97.3565 233.9228 0001433 114.5846 245.5531 15.05631697 42942
STARLINK-35250          
1 65603U 25207M   26166.18109657 -.00000097  00000+0 -27327-5 0  9997
2 65603  97.3596 233.8841 0002155 134.1462 225.9943 15.05650111 42931
STARLINK-35251          
1 65604U 25207N   26166.13678309  .00004116  00000+0  28895-3 0  9991
2 65604  97.3566 233.7895 0000747  90.5606 269.5707 15.05662145 42928
STARLINK-35171          
1 65605U 25207P   26166.18940632 -.00014941  00000+0 -10346-2 0  9998
2 65605  97.3613 233.8705 0001227 118.8664 241.2686 15.05618335 42773
STARLINK-35195          
1 65606U 25207Q   26166.16448363  .00003288  00000+0  23166-3 0  9996
2 65606  97.3561 233.9075 0001742  94.9917 265.1510 15.05658373 42939
STARLINK-35156          
1 65607U 25207R   26166.17002257  .00003738  00000+0  26284-3 0  9990
2 65607  97.3564 233.8995 0002805 104.3307 255.8233 15.05659463 42932
STARLINK-35185          
1 65608U 25207S   26166.19493877  .00004705  00000+0  32979-3 0  9998
2 65608  97.3544 233.8645 0001680 107.1080 253.0332 15.05658497 42938
STARLINK-35053          
1 65609U 25207T   26166.17832651  .00001806  00000+0  12908-3 0  9993
2 65609  97.3562 233.8880 0001872 122.9639 237.1769 15.05657595 42775
STARLINK-35178          
1 65610U 25207U   26166.13956014 -.00026223  00000+0 -18230-2 0  9996
2 65610  97.3638 233.7879 0001215 164.2814 195.8451 15.05594175 42922
